{"type": "FeatureCollection", "features": [ {"type": "Feature", "properties": {"norad_id": 41836, "name": "HIMAWARI-9", "group": "weather", "lat": 0.02042396889320764, "lon": 137.47068174348473, "alt_km": 35790.643783285894, "timestamp": "2025-12-26T17:24:54.360448+00:00", "meta": {"OBJECT_NAME": "HIMAWARI-9", "OBJECT_ID": "2016-064A", "EPOCH": "2025-12-26T00:44:38.656608", "MEAN_MOTION": 1.00271993, "ECCENTRICITY": 0.00010793, "INCLINATION": 0.0124, "RA_OF_ASC_NODE": 80.1849, "ARG_OF_PERICENTER": 234.8379, "MEAN_ANOMALY": 291.7052, "EPHEMERIS_TYPE": 0, "CLASSIFICATION_TYPE": "U", "NORAD_CAT_ID": 41836, "ELEMENT_SET_NO": 999, "REV_AT_EPOCH": 3347, "BSTAR": 0, "MEAN_MOTION_DOT": -2.53e-06, "MEAN_MOTION_DDOT": 0}, "tle": {"line1": "1 41836U 16064A   25360.03100297 -.00000253  00000+0  00000+0 0  9996", "line2": "2 41836   0.0124  80.1849 0001079 234.8379 291.7052  1.00271993 33479"}}, "geometry": {"type": "Point", "coordinates": [137.47068174348473, 0.02042396889320764]}}, {"type": "Feature", "properties": {"norad_id": 41866, "name": "GOES 16", "group": "weather", "lat": 0.02112897650656078, "lon": -107.98439097878358, "alt_km": 35772.84860355036, "timestamp": "2025-12-26T17:24:54.360461+00:00", "meta": {"OBJECT_NAME": "GOES 16", "OBJECT_ID": "2016-071A", "EPOCH": "2025-12-26T01:40:38.552160", "MEAN_MOTION": 1.0027174, "ECCENTRICITY": 0.00032387, "INCLINATION": 0.0783, "RA_OF_ASC_NODE": 101.035, "ARG_OF_PERICENTER": 165.7681, "MEAN_ANOMALY": 108.5169, "EPHEMERIS_TYPE": 0, "CLASSIFICATION_TYPE": "U", "NORAD_CAT_ID": 41866, "ELEMENT_SET_NO": 999, "REV_AT_EPOCH": 3336, "BSTAR": 0, "MEAN_MOTION_DOT": -6.9e-07, "MEAN_MOTION_DDOT": 0}, "tle": {"line1": "1 41866U 16071A   25360.06989065 -.00000069  00000+0  00000+0 0  9993", "line2": "2 41866   0.0783 101.0350 0003238 165.7681 108.5169  1.00271740 33362"}}, "geometry": {"type": "Point", "coordinates": [-107.98439097878358, 0.02112897650656078]}}, {"type": "Feature", "properties": {"norad_id": 41882, "name": "FENGYUN 4A", "group": "weather", "lat": 1.1753564861241688, "lon": 120.18056630022389, "alt_km": 35793.70479408151, "timestamp": "2025-12-26T17:24:54.360474+00:00", "meta": {"OBJECT_NAME": "FENGYUN 4A", "OBJECT_ID": "2016-077A", "EPOCH": "2025-12-26T02:19:21.450720", "MEAN_MOTION": 1.00262566, "ECCENTRICITY": 0.00045276, "INCLINATION": 1.8809, "RA_OF_ASC_NODE": 82.26, "ARG_OF_PERICENTER": 143.2043, "MEAN_ANOMALY": 27.8016, "EPHEMERIS_TYPE": 0, "CLASSIFICATION_TYPE": "U", "NORAD_CAT_ID": 41882, "ELEMENT_SET_NO": 999, "REV_AT_EPOCH": 3319, "BSTAR": 0, "MEAN_MOTION_DOT": -3.36e-06, "MEAN_MOTION_DDOT": 0}, "tle": {"line1": "1 41882U 16077A   25360.09677605 -.00000336  00000+0  00000+0 0  9991", "line2": "2 41882   1.8809  82.2600 0004527 143.2043  27.8016  1.00262566 33192"}}, "geometry": {"type": "Point", "coordinates": [120.18056630022389, 1.1753564861241688]}}, {"type": "Feature", "properties": {"norad_id": 41884, "name": "CYGFM05", "group": "weather", "lat": -26.49498513316437, "lon": -89.7782997623642, "alt_km": 416.6004533741716, "timestamp": "2025-12-26T17:24:54.360485+00:00", "meta": {"OBJECT_NAME": "CYGFM05", "OBJECT_ID": "2016-078A", "EPOCH": "2025-12-26T05:15:13.645152", "MEAN_MOTION": 15.48146899, "ECCENTRICITY": 0.00104477, "INCLINATION": 34.9602, "RA_OF_ASC_NODE": 319.0509, "ARG_OF_PERICENTER": 298.9707, "MEAN_ANOMALY": 60.9967, "EPHEMERIS_TYPE": 0, "CLASSIFICATION_TYPE": "U", "NORAD_CAT_ID": 41884, "ELEMENT_SET_NO": 999, "REV_AT_EPOCH": 50185, "BSTAR": 0.00037568253, "MEAN_MOTION_DOT": 0.00020392, "MEAN_MOTION_DDOT": 0}, "tle": {"line1": "1 41884U 16078A   25360.21890793  .00020392  00000+0  37568-3 0  9999", "line2": "2 41884  34.9602 319.0509 0010447 298.9707  60.9967 15.48146899501857"}}, "geometry": {"type": "Point", "coordinates": [-89.7782997623642, -26.49498513316437]}}, {"type": "Feature", "properties": {"norad_id": 41885, "name": "CYGFM04", "group": "weather", "lat": -17.781013570827994, "lon": -97.24527807435376, "alt_km": 408.6805172014183, "timestamp": "2025-12-26T17:24:54.360496+00:00", "meta": {"OBJECT_NAME": "CYGFM04", "OBJECT_ID": "2016-078B", "EPOCH": "2025-12-26T05:11:40.920576", "MEAN_MOTION": 15.50945052, "ECCENTRICITY": 0.00089688, "INCLINATION": 34.9347, "RA_OF_ASC_NODE": 293.4499, "ARG_OF_PERICENTER": 323.6494, "MEAN_ANOMALY": 36.3618, "EPHEMERIS_TYPE": 0, "CLASSIFICATION_TYPE": "U", "NORAD_CAT_ID": 41885, "ELEMENT_SET_NO": 999, "REV_AT_EPOCH": 50203, "BSTAR": 0.00038816958, "MEAN_MOTION_DOT": 0.00023266, "MEAN_MOTION_DDOT": 0}, "tle": {"line1": "1 41885U 16078B   25360.21644584  .00023266  00000+0  38817-3 0  9996", "line2": "2 41885  34.9347 293.4499 0008968 323.6494  36.3618 15.50945052502033"}}, "geometry": {"type": "Point", "coordinates": [-97.24527807435376, -17.781013570827994]}}, {"type": "Feature", "properties": {"norad_id": 41886, "name": "CYGFM02", "group": "weather", "lat": 26.69229754041897, "lon": -25.692087162902606, "alt_km": 403.54299803414324, "timestamp": "2025-12-26T17:24:54.360507+00:00", "meta": {"OBJECT_NAME": "CYGFM02", "OBJECT_ID": "2016-078C", "EPOCH": "2025-12-26T04:50:47.956416", "MEAN_MOTION": 15.52365862, "ECCENTRICITY": 0.00105906, "INCLINATION": 34.9437, "RA_OF_ASC_NODE": 291.6942, "ARG_OF_PERICENTER": 325.3429, "MEAN_ANOMALY": 34.6603, "EPHEMERIS_TYPE": 0, "CLASSIFICATION_TYPE": "U", "NORAD_CAT_ID": 41886, "ELEMENT_SET_NO": 999, "REV_AT_EPOCH": 50216, "BSTAR": 0.00040372119, "MEAN_MOTION_DOT": 0.00025494, "MEAN_MOTION_DDOT": 0}, "tle": {"line1": "1 41886U 16078C   25360.20194394  .00025494  00000+0  40372-3 0  9999", "line2": "2 41886  34.9437 291.6942 0010590 325.3429  34.6603 15.52365862502164"}}, "geometry": {"type": "Point", "coordinates": [-25.692087162902606, 26.69229754041897]}}, {"type": "Feature", "properties": {"norad_id": 41887, "name": "CYGFM01", "group": "weather", "lat": 12.862874584012468, "lon": -22.922865787356148, "alt_km": 417.0132389026476, "timestamp": "2025-12-26T17:24:54.360518+00:00", "meta": {"OBJECT_NAME": "CYGFM01", "OBJECT_ID": "2016-078D", "EPOCH": "2025-12-26T06:29:15.663552", "MEAN_MOTION": 15.48744143, "ECCENTRICITY": 0.00102429, "INCLINATION": 34.9436, "RA_OF_ASC_NODE": 320.968, "ARG_OF_PERICENTER": 291.8532, "MEAN_ANOMALY": 68.11, "EPHEMERIS_TYPE": 0, "CLASSIFICATION_TYPE": "U", "NORAD_CAT_ID": 41887, "ELEMENT_SET_NO": 999, "REV_AT_EPOCH": 50180, "BSTAR": 0.00037968517, "MEAN_MOTION_DOT": 0.00021048, "MEAN_MOTION_DDOT": 0}, "tle": {"line1": "1 41887U 16078D   25360.27032018  .00021048  00000+0  37969-3 0  9990", "line2": "2 41887  34.9436 320.9680 0010242 291.8532  68.1100 15.48744143501807"}}, "geometry": {"type": "Point", "coordinates": [-22.922865787356148, 12.862874584012468]}}, {"type": "Feature", "properties": {"norad_id": 41888, "name": "CYGFM08", "group": "weather", "lat": 24.693972912734967, "lon": 79.63040864593133, "alt_km": 419.55312050236626, "timestamp": "2025-12-26T17:24:54.360529+00:00", "meta": {"OBJECT_NAME": "CYGFM08", "OBJECT_ID": "2016-078E", "EPOCH": "2025-12-26T04:28:38.500608", "MEAN_MOTION": 15.4998199, "ECCENTRICITY": 0.00113412, "INCLINATION": 34.946, "RA_OF_ASC_NODE": 304.349, "ARG_OF_PERICENTER": 314.88, "MEAN_ANOMALY": 45.1001, "EPHEMERIS_TYPE": 0, "CLASSIFICATION_TYPE": "U", "NORAD_CAT_ID": 41888, "ELEMENT_SET_NO": 999, "REV_AT_EPOCH": 50202, "BSTAR": 0.00037787487, "MEAN_MOTION_DOT": 0.00021899, "MEAN_MOTION_DDOT": 0}, "tle": {"line1": "1 41888U 16078E   25360.18655672  .00021899  00000+0  37787-3 0  9990", "line2": "2 41888  34.9460 304.3490 0011341 314.8800  45.1001 15.49981990502029"}}, "geometry": {"type": "Point", "coordinates": [79.63040864593133, 24.693972912734967]}}, {"type": "Feature", "properties": {"norad_id": 41890, "name": "CYGFM07", "group": "weather", "lat": 16.302053838989252, "lon": 84.95765729231728, "alt_km": 417.70019877578034, "timestamp": "2025-12-26T17:24:54.360540+00:00", "meta": {"OBJECT_NAME": "CYGFM07", "OBJECT_ID": "2016-078G", "EPOCH": "2025-12-26T04:24:26.717184", "MEAN_MOTION": 15.50579165, "ECCENTRICITY": 0.00091636, "INCLINATION": 34.9476, "RA_OF_ASC_NODE": 293.2724, "ARG_OF_PERICENTER": 329.5262, "MEAN_ANOMALY": 30.4927, "EPHEMERIS_TYPE": 0, "CLASSIFICATION_TYPE": "U", "NORAD_CAT_ID": 41890, "ELEMENT_SET_NO": 999, "REV_AT_EPOCH": 50204, "BSTAR": 0.0003751636, "MEAN_MOTION_DOT": 0.0002219, "MEAN_MOTION_DDOT": 0}, "tle": {"line1": "1 41890U 16078G   25360.18364256  .00022190  00000+0  37516-3 0  9993", "line2": "2 41890  34.9476 293.2724 0009163 329.5262  30.4927 15.50579165502044"}}, "geometry": {"type": "Point", "coordinates": [84.95765729231728, 16.302053838989252]}}, {"type": "Feature", "properties": {"norad_id": 41891, "name": "CYGFM03", "group": "weather", "lat": -11.271102864977564, "lon": -84.94070884670504, "alt_km": 409.67103300161034, "timestamp": "2025-12-26T17:24:54.360551+00:00", "meta": {"OBJECT_NAME": "CYGFM03", "OBJECT_ID": "2016-078H", "EPOCH": "2025-12-26T05:08:17.982528", "MEAN_MOTION": 15.50474136, "ECCENTRICITY": 0.00090668, "INCLINATION": 34.943, "RA_OF_ASC_NODE": 295.0003, "ARG_OF_PERICENTER": 316.561, "MEAN_ANOMALY": 43.4397, "EPHEMERIS_TYPE": 0, "CLASSIFICATION_TYPE": "U", "NORAD_CAT_ID": 41891, "ELEMENT_SET_NO": 999, "REV_AT_EPOCH": 50202, "BSTAR": 0.00038802061, "MEAN_MOTION_DOT": 0.00022868, "MEAN_MOTION_DDOT": 0}, "tle": {"line1": "1 41891U 16078H   25360.21409702  .00022868  00000+0  38802-3 0  9995", "line2": "2 41891  34.9430 295.0003 0009066 316.5610  43.4397 15.50474136502025"}}, "geometry": {"type": "Point", "coordinates": [-84.94070884670504, -11.271102864977564]}}]}